MALLIGYONG-1            
1 58400U 23179A   24234.94622854  .00010648  00000+0  46619-3 0  9991
2 58400  97.3931 120.6848 0001373  43.7048 316.4297 15.22210429 41724
